{
  "type": "FeatureCollection",
  "name": "Himachal_Pradesh_Hilly_Catchments",
  "features": [
    {
      "type": "Feature",
      "properties": {
        "id": "BASIN-01",
        "name": "Upper Beas River Basin (Kullu - Manali)",
        "river": "Beas",
        "district": "Kullu",
        "risk_classification": "HIGH",
        "elevation_range_m": "1100 - 3800",
        "mean_slope_deg": 32.5
      },
      "geometry": {
        "type": "Polygon",
        "coordinates": [
          [
            [77.05, 31.85],
            [77.25, 31.88],
            [77.30, 32.15],
            [77.22, 32.35],
            [77.08, 32.32],
            [76.98, 32.05],
            [77.05, 31.85]
          ]
        ]
      }
    },
    {
      "type": "Feature",
      "properties": {
        "id": "BASIN-02",
        "name": "Mid Beas & Suketi Khad Basin (Mandi)",
        "river": "Beas",
        "district": "Mandi",
        "risk_classification": "CRITICAL",
        "elevation_range_m": "750 - 2100",
        "mean_slope_deg": 24.0
      },
      "geometry": {
        "type": "Polygon",
        "coordinates": [
          [
            [76.82, 31.55],
            [77.08, 31.58],
            [77.12, 31.80],
            [76.95, 32.30],
            [76.78, 32.22],
            [76.75, 31.75],
            [76.82, 31.55]
          ]
        ]
      }
    },
    {
      "type": "Feature",
      "properties": {
        "id": "BASIN-03",
        "name": "Sutlej Tributary Ridge Zone (Shimla)",
        "river": "Sutlej Tributary",
        "district": "Shimla",
        "risk_classification": "MODERATE",
        "elevation_range_m": "1400 - 2600",
        "mean_slope_deg": 28.0
      },
      "geometry": {
        "type": "Polygon",
        "coordinates": [
          [
            [77.05, 31.05],
            [77.30, 31.08],
            [77.35, 31.25],
            [77.18, 31.32],
            [77.02, 31.20],
            [77.05, 31.05]
          ]
        ]
      }
    },
    {
      "type": "Feature",
      "properties": {
        "id": "BASIN-04",
        "name": "Giri & Gambhar Watersheds (Solan)",
        "river": "Giri",
        "district": "Solan",
        "risk_classification": "LOW",
        "elevation_range_m": "900 - 1800",
        "mean_slope_deg": 22.0
      },
      "geometry": {
        "type": "Polygon",
        "coordinates": [
          [
            [77.00, 30.80],
            [77.28, 30.82],
            [77.30, 31.02],
            [77.10, 31.05],
            [76.95, 30.92],
            [77.00, 30.80]
          ]
        ]
      }
    },
    {
      "type": "Feature",
      "properties": {
        "id": "BASIN-05",
        "name": "Govind Sagar Inflow Basin (Bilaspur)",
        "river": "Sutlej",
        "district": "Bilaspur",
        "risk_classification": "LOW",
        "elevation_range_m": "550 - 1100",
        "mean_slope_deg": 17.5
      },
      "geometry": {
        "type": "Polygon",
        "coordinates": [
          [
            [76.60, 31.20],
            [76.88, 31.22],
            [76.90, 31.42],
            [76.70, 31.48],
            [76.55, 31.32],
            [76.60, 31.20]
          ]
        ]
      }
    }
  ]
}
